[{"OBJECT_NAME":"STARLINK-30772","OBJECT_ID":"2023-162T","EPOCH":"2026-03-09T22:00:01.999584","MEAN_MOTION":15.26763128,"ECCENTRICITY":0.00013659,"INCLINATION":43.0005,"RA_OF_ASC_NODE":131.0178,"ARG_OF_PERICENTER":264.889,"MEAN_ANOMALY":106.181,"EPHEMERIS_TYPE":0,"CLASSIFICATION_TYPE":"U","NORAD_CAT_ID":58135,"ELEMENT_SET_NO":999,"REV_AT_EPOCH":568,"BSTAR":6.5209963e-5,"MEAN_MOTION_DOT":1.491e-5,"MEAN_MOTION_DDOT":0},{"OBJECT_NAME":"239ALFEROV (RS61S)","OBJECT_ID":"2025-155F","EPOCH":"2026-03-09T21:46:33.382848","MEAN_MOTION":15.29933217,"ECCENTRICITY":0.00084878,"INCLINATION":97.4469,"RA_OF_ASC_NODE":37.6373,"ARG_OF_PERICENTER":151.5904,"MEAN_ANOMALY":208.58,"EPHEMERIS_TYPE":0,"CLASSIFICATION_TYPE":"U","NORAD_CAT_ID":64881,"ELEMENT_SET_NO":999,"REV_AT_EPOCH":6561,"BSTAR":0.00067233359,"MEAN_MOTION_DOT":0.00019457,"MEAN_MOTION_DDOT":0}]
